*******************************************************************************
JPL/HORIZONS                 110 Lydia (A870 HA)           2020-Jun-20 08:15:14
Rec #:     110 (+COV) Soln.date: 2020-May-20_00:58:46   # obs: 2632 (1870-2020)
 
IAU76/J2000 helio. ecliptic osc. elements (au, days, deg., period=Julian yrs):
 
  EPOCH=  2454647.5 ! 2008-Jun-30.00 (TDB)         Residual RMS= .25232
   EC= .07787531979807125  QR= 2.520146030357451   TP= 2454347.5367793632
   OM= 56.99111098086713   W=  282.2752159385926   IN= 5.973025668271576
   A= 2.732977529465522    MA= 65.43618783218167   ADIST= 2.945809028573592
   PER= 4.51817            N= .218147364           ANGMOM= .028351664
   DAN= 2.67216            DDN= 2.76214            L= 339.3312952
   B= -5.8359881           MOID= 1.51884997        TP= 2007-Sep-04.0367793632
 
Asteroid physical parameters (km, seconds, rotational period in hours):
   GM= n.a.                RAD= 43.045             ROTPER= 10.927
   H= 7.9                  G= .200                 B-V= .705
                           ALBEDO= .1808           STYP= X
 
ASTEROID comments: 
1: soln ref.= JPL#86, OCC=0
2: source=ORB
*******************************************************************************
 
 
*******************************************************************************
Ephemeris / WWW_USER Sat Jun 20 08:15:14 2020 Pasadena, USA      / Horizons
*******************************************************************************
Target body name: 110 Lydia (A870 HA)             {source: JPL#86}
Center body name: Solar System Barycenter (0)     {source: DE431}
Center-site name: BODY CENTER
*******************************************************************************
Start time      : A.D. 1969-Jun-28 00:00:00.0000 TDB
Stop  time      : A.D. 2071-May-04 00:00:00.0000 TDB
Step-size       : 7200 minutes
*******************************************************************************
Center geodetic : 0.00000000,0.00000000,0.0000000 {E-lon(deg),Lat(deg),Alt(km)}
Center cylindric: 0.00000000,0.00000000,0.0000000 {E-lon(deg),Dxy(km),Dz(km)}
Center radii    : (undefined)                                                  
Small perturbers: Yes                             {source: SB431-N16}
Output units    : AU-D
Output type     : GEOMETRIC cartesian states
Output format   : 2 (position and velocity)
Reference frame : Ecliptic of J2000.0
*******************************************************************************
Initial IAU76/J2000 heliocentric ecliptic osculating elements (au, days, deg.):
  EPOCH=  2454647.5 ! 2008-Jun-30.00 (TDB)         Residual RMS= .25232        
   EC= .07787531979807125  QR= 2.520146030357451   TP= 2454347.5367793632      
   OM= 56.99111098086713   W=  282.2752159385926   IN= 5.973025668271576       
  Equivalent ICRF heliocentric equatorial cartesian coordinates (au, au/d):
   X= 1.594509745413649E+00  Y= 1.959451460190968E+00  Z= 8.292182319941083E-01
  VX=-8.013784808344502E-03 VY= 5.976122079775600E-03 VZ= 3.791660091290264E-03
Asteroid physical parameters (km, seconds, rotational period in hours):        
   GM= n.a.                RAD= 43.045             ROTPER= 10.927              
   H= 7.9                  G= .200                 B-V= .705                   
                           ALBEDO= .1808           STYP= X                     
*******************************************************************************
            JDTDB,            Calendar Date (TDB),        delta-T,                      X,                      Y,                      Z,                     VX,                     VY,                     VZ,
******************************************************************************************************************************************************************************************************************
$$SOE
2447400.500000000, A.D. 1988-Aug-27 00:00:00.0000,      56.182714, -6.978775943759834E-01, -2.598597506874669E+00, -8.574014196596971E-02,  1.034599424044873E-02, -1.889087843013784E-03, -1.016792758738056E-03,
2447405.500000000, A.D. 1988-Sep-01 00:00:00.0000,      56.182629, -6.460190360381185E-01, -2.607548932160517E+00, -9.080751124223983E-02,  1.039681122603143E-02, -1.691219310147121E-03, -1.010085712529141E-03,
2447410.500000000, A.D. 1988-Sep-06 00:00:00.0000,      56.182556, -5.939157057959675E-01, -2.615507125624311E+00, -9.584030586101060E-02,  1.044389403329693E-02, -1.491806231014169E-03, -1.002962734462323E-03,
2447415.500000000, A.D. 1988-Sep-11 00:00:00.0000,      56.182495, -5.415864083098917E-01, -2.622464532909532E+00, -1.008364439028162E-01,  1.048718930994685E-02, -1.290916280245839E-03, -9.954229524802391E-04,
2447420.500000000, A.D. 1988-Sep-16 00:00:00.0000,      56.182444, -4.890502126139025E-01, -2.628413942908028E+00, -1.057938395736195E-01,  1.052664467081457E-02, -1.088619083398321E-03, -9.874656899164238E-04,
2447425.500000000, A.D. 1988-Sep-21 00:00:00.0000,      56.182404, -4.363264470985603E-01, -2.633348497525141E+00, -1.107104041983568E-01,  1.056220877074077E-02, -8.849862207354925E-04, -9.790904721343773E-04,
2447430.500000000, A.D. 1988-Sep-26 00:00:00.0000,      56.182374, -3.834346941251419E-01, -2.637261701457478E+00, -1.155840472477036E-01,  1.059383137916454E-02, -6.800912284971229E-04, -9.702970331733474E-04,
2447435.500000000, A.D. 1988-Oct-01 00:00:00.0000,      56.182357, -3.303947842629006E-01, -2.640147431970593E+00, -1.204126773980415E-01,  1.062146345626725E-02, -4.740095975800923E-04, -9.610853223797265E-04,
2447440.500000000, A.D. 1988-Oct-06 00:00:00.0000,      56.182352, -2.772267901420736E-01, -2.641999948663313E+00, -1.251942036245005E-01,  1.064505723050516E-02, -2.668187694836785E-04, -9.514555110007215E-04,
2447445.500000000, A.D. 1988-Oct-11 00:00:00.0000,      56.182362, -2.239510199159986E-01, -2.642813903204560E+00, -1.299265363268312E-01,  1.066456627741758E-02, -5.859812933066248E-05, -9.414079987213616E-04,
2447450.500000000, A.D. 1988-Oct-16 00:00:00.0000,      56.182383, -1.705880103262200E-01, -2.642584349027622E+00, -1.346075884877855E-01,  1.067994559960220E-02,  1.505710041999657E-04, -9.309434201274174E-04,
2447455.500000000, A.D. 1988-Oct-21 00:00:00.0000,      56.182416, -1.171585193650659E-01, -2.641306750965957E+00, -1.392352768635861E-01,  1.069115170773045E-02,  3.606053922353494E-04, -9.200626510732472E-04,
2447460.500000000, A.D. 1988-Oct-26 00:00:00.0000,      56.182458, -6.368351853077436E-02, -2.638976994813326E+00, -1.438075232059474E-01,  1.069814270250385E-02,  5.714198926750460E-04, -9.087668149319108E-04,
2447465.500000000, A.D. 1988-Oct-31 00:00:00.0000,      56.182513, -1.018418467046577E-02, -2.635591396789457E+00, -1.483222555150253E-01,  1.070087835757139E-02,  7.829274810242786E-04, -8.970572887176871E-04,
2447470.500000000, A.D. 1988-Nov-05 00:00:00.0000,      56.182581,  4.331810859391565E-02, -2.631146712892098E+00, -1.527774093226754E-01,  1.069932020340407E-02,  9.950392749582359E-04, -8.849357090848302E-04,
2447475.500000000, A.D. 1988-Nov-10 00:00:00.0000,      56.182660,  9.680179986099446E-02, -2.625640148117498E+00, -1.571709290053697E-01,  1.069343161190259E-02,  1.207664562363905E-03, -8.724039781903526E-04,
2447480.500000000, A.D. 1988-Nov-15 00:00:00.0000,      56.182750,  1.502451493695381E-01, -2.619069365531876E+00, -1.615007691260227E-01,  1.068317788141429E-02,  1.420710832945169E-03, -8.594642693859332E-04,
2447485.500000000, A.D. 1988-Nov-20 00:00:00.0000,      56.182848,  2.036262488436772E-01, -2.611432495175408E+00, -1.657648958037746E-01,  1.066852632194777E-02,  1.634083813648911E-03, -8.461190327079702E-04,
2447490.500000000, A.D. 1988-Nov-25 00:00:00.0000,      56.182953,  2.569230317643688E-01, -2.602728142779138E+00, -1.699612881106798E-01,  1.064944634042899E-02,  1.847687508091535E-03, -8.323710001435286E-04,
2447495.500000000, A.D. 1988-Nov-30 00:00:00.0000,      56.183067,  3.101132840668784E-01, -2.592955398274547E+00, -1.740879394941209E-01,  1.062590952581936E-02,  2.061424240080676E-03, -8.182231906515126E-04,
2447500.500000000, A.D. 1988-Dec-05 00:00:00.0000,      56.183189,  3.631746552630685E-01, -2.582113844075101E+00, -1.781428592236659E-01,  1.059788973388277E-02,  2.275194701320693E-03, -8.036789149162069E-04,
2447505.500000000, A.D. 1988-Dec-10 00:00:00.0000,      56.183319,  4.160846699861724E-01, -2.570203563108568E+00, -1.821240738609758E-01,  1.056536317137652E-02,  2.488898003417902E-03, -7.887417798088334E-04,
2447510.500000000, A.D. 1988-Dec-15 00:00:00.0000,      56.183454,  4.688207399546747E-01, -2.557225146578289E+00, -1.860296287512444E-01,  1.052830847947664E-02,  2.702431734320120E-03, -7.734156925355774E-04,
2447515.500000000, A.D. 1988-Dec-20 00:00:00.0000,      56.183591,  5.213601763511220E-01, -2.543179701430958E+00, -1.898575895345628E-01,  1.048670681630703E-02,  2.915692019274566E-03, -7.577048644572354E-04,
2447520.500000000, A.D. 1988-Dec-25 00:00:00.0000,      56.183730,  5.736802026111321E-01, -2.528068857508389E+00, -1.936060436755378E-01,  1.044054193847043E-02,  3.128573586253564E-03, -7.416138145723768E-04,
2447525.500000000, A.D. 1988-Dec-30 00:00:00.0000,      56.183872,  6.257579676172231E-01, -2.511894774361331E+00, -1.972731020094756E-01,  1.038980028140461E-02,  3.340969835680981E-03, -7.251473726542955E-04,
2447530.500000000, A.D. 1989-Jan-04 00:00:00.0000,      56.184017,  6.775705592909128E-01, -2.494660147704283E+00, -2.008569003033422E-01,  1.033447103828219E-02,  3.552772914275470E-03, -7.083106820256978E-04,
2447535.500000000, A.D. 1989-Jan-09 00:00:00.0000,      56.184162,  7.290950185749351E-01, -2.476368215491030E+00, -2.043556008296531E-01,  1.027454623709492E-02,  3.763873792915362E-03, -6.911092019483241E-04,
